start=new Date('2023-01-02T00:00:00.000Z').valueOf();
sats=[{"SEMIMAJOR_AXIS":"6925.368","PERIOD":"95.593","EPHEMERIS_TYPE":"0","PERIAPSIS":"546.198","ELEMENT_SET_NO":"999","MEAN_MOTION_DOT":"-0.00000211","MEAN_ELEMENT_THEORY":"SGP4","NORAD_CAT_ID":"48360","CENTER_NAME":"EARTH","CLASSIFICATION_TYPE":"U","RCS_SIZE":"LARGE","REF_FRAME":"TEME","FILE":"3729026","APOAPSIS":"548.269","MEAN_MOTION":"15.06393497","ARG_OF_PERICENTER":"85.3804","REV_AT_EPOCH":"9235","OBJECT_ID":"2021-038H","ECCENTRICITY":"0.00014950","OBJECT_TYPE":"PAYLOAD","GP_ID":"221994943","MEAN_ANOMALY":"274.7355","COUNTRY_CODE":"US","TLE_LINE1":"1 48360U 21038H   23001.91320222 -.00000211  00000-0  47617-5 0  9997","BSTAR":"0.00000476170000","DECAY_DATE":null,"SITE":"AFETR","EPOCH":"2023-01-01T21:55:00.671808","MEAN_MOTION_DDOT":"0.0000000000000","TIME_SYSTEM":"UTC","RA_OF_ASC_NODE":"181.5370","OBJECT_NAME":"STARLINK-2622","INCLINATION":"53.0540","LAUNCH_DATE":"2021-05-04","TLE_LINE2":"2 48360  53.0540 181.5370 0001495  85.3804 274.7355 15.06393497 92351"},{"ELEMENT_SET_NO":"999","MEAN_MOTION_DOT":"0.00002162","MEAN_ELEMENT_THEORY":"SGP4","NORAD_CAT_ID":"48361","CENTER_NAME":"EARTH","CLASSIFICATION_TYPE":"U","SEMIMAJOR_AXIS":"6925.354","PERIOD":"95.592","PERIAPSIS":"546.260","EPHEMERIS_TYPE":"0","FILE":"3728952","APOAPSIS":"548.179","MEAN_MOTION":"15.06398073","ARG_OF_PERICENTER":"98.4645","RCS_SIZE":"LARGE","REF_FRAME":"TEME","BSTAR":"0.00016400000000","TLE_LINE1":"1 48361U 21038J   23001.77683081  .00002162  00000-0  16400-3 0  9997","DECAY_DATE":null,"SITE":"AFETR","EPOCH":"2023-01-01T18:38:38.181984","MEAN_MOTION_DDOT":"0.0000000000000","REV_AT_EPOCH":"9174","OBJECT_ID":"2021-038J","ECCENTRICITY":"0.00013850","GP_ID":"221987847","OBJECT_TYPE":"PAYLOAD","MEAN_ANOMALY":"261.6501","COUNTRY_CODE":"US","LAUNCH_DATE":"2021-05-04","TLE_LINE2":"2 48361  53.0509 182.1481 0001385  98.4645 261.6501 15.06398073 91748","TIME_SYSTEM":"UTC","RA_OF_ASC_NODE":"182.1481","OBJECT_NAME":"STARLINK-2591","INCLINATION":"53.0509"},{"REF_FRAME":"TEME","RCS_SIZE":"LARGE","MEAN_MOTION":"15.06385561","ARG_OF_PERICENTER":"89.1798","FILE":"3728952","APOAPSIS":"548.216","EPHEMERIS_TYPE":"0","PERIAPSIS":"546.299","PERIOD":"95.593","SEMIMAJOR_AXIS":"6925.393","CLASSIFICATION_TYPE":"U","NORAD_CAT_ID":"48362","CENTER_NAME":"EARTH","MEAN_MOTION_DOT":"0.00004818","MEAN_ELEMENT_THEORY":"SGP4","ELEMENT_SET_NO":"999","INCLINATION":"53.0555","RA_OF_ASC_NODE":"181.7676","OBJECT_NAME":"STARLINK-2578","TIME_SYSTEM":"UTC","TLE_LINE2":"2 48362  53.0555 181.7676 0001384  89.1798 270.9350 15.06385561 91761","LAUNCH_DATE":"2021-05-04","COUNTRY_CODE":"US","GP_ID":"221989098","OBJECT_TYPE":"PAYLOAD","MEAN_ANOMALY":"270.9350","OBJECT_ID":"2021-038K","ECCENTRICITY":"0.00013840","REV_AT_EPOCH":"9176","EPOCH":"2023-01-01T21:01:57.592992","MEAN_MOTION_DDOT":"0.0000000000000","TLE_LINE1":"1 48362U 21038K   23001.87636103  .00004818  00000-0  34226-3 0  9998","DECAY_DATE":null,"SITE":"AFETR","BSTAR":"0.00034226000000"},{"INCLINATION":"53.0542","OBJECT_NAME":"STARLINK-2626","RA_OF_ASC_NODE":"177.2558","TIME_SYSTEM":"UTC","TLE_LINE2":"2 48363  53.0542 177.2558 0001491  92.2133 267.9027 15.06406024 91815","LAUNCH_DATE":"2021-05-04","COUNTRY_CODE":"US","MEAN_ANOMALY":"267.9027","GP_ID":"221989348","OBJECT_TYPE":"PAYLOAD","ECCENTRICITY":"0.00014910","OBJECT_ID":"2021-038L","REV_AT_EPOCH":"9181","MEAN_MOTION_DDOT":"0.0000000000000","EPOCH":"2023-01-01T18:04:46.772832","BSTAR":"-0.00028521000000","TLE_LINE1":"1 48363U 21038L   23001.75331913 -.00004528  00000-0 -28521-3 0  9998","DECAY_DATE":null,"SITE":"AFETR","REF_FRAME":"TEME","RCS_SIZE":"LARGE","ARG_OF_PERICENTER":"92.2133","MEAN_MOTION":"15.06406024","APOAPSIS":"548.228","FILE":"3728952","EPHEMERIS_TYPE":"0","PERIAPSIS":"546.163","PERIOD":"95.592","SEMIMAJOR_AXIS":"6925.330","CLASSIFICATION_TYPE":"U","CENTER_NAME":"EARTH","NORAD_CAT_ID":"48363","MEAN_ELEMENT_THEORY":"SGP4","MEAN_MOTION_DOT":"-0.00004528","ELEMENT_SET_NO":"999"},{"MEAN_MOTION":"15.06397444","ARG_OF_PERICENTER":"64.2028","FILE":"3728952","APOAPSIS":"548.370","REF_FRAME":"TEME","RCS_SIZE":"LARGE","CLASSIFICATION_TYPE":"U","NORAD_CAT_ID":"48364","CENTER_NAME":"EARTH","MEAN_MOTION_DOT":"0.00000160","MEAN_ELEMENT_THEORY":"SGP4","ELEMENT_SET_NO":"999","PERIAPSIS":"546.073","EPHEMERIS_TYPE":"0","PERIOD":"95.592","SEMIMAJOR_AXIS":"6925.356","TLE_LINE2":"2 48364  53.0538 177.3870 0001658  64.2028 295.9132 15.06397444 91819","LAUNCH_DATE":"2021-05-04","INCLINATION":"53.0538","RA_OF_ASC_NODE":"177.3870","OBJECT_NAME":"STARLINK-2611","TIME_SYSTEM":"UTC","EPOCH":"2023-01-01T18:26:03.044256","MEAN_MOTION_DDOT":"0.0000000000000","TLE_LINE1":"1 48364U 21038M   23001.76809079  .00000160  00000-0  29651-4 0  9995","BSTAR":"0.00002965100000","DECAY_DATE":null,"SITE":"AFETR","COUNTRY_CODE":"US","GP_ID":"221987597","OBJECT_TYPE":"PAYLOAD","MEAN_ANOMALY":"295.9132","OBJECT_ID":"2021-038M","ECCENTRICITY":"0.00016580","REV_AT_EPOCH":"9181"},{"CENTER_NAME":"EARTH","NORAD_CAT_ID":"48365","CLASSIFICATION_TYPE":"U","ELEMENT_SET_NO":"999","MEAN_MOTION_DOT":"0.00002021","MEAN_ELEMENT_THEORY":"SGP4","PERIOD":"95.592","PERIAPSIS":"546.199","EPHEMERIS_TYPE":"0","SEMIMAJOR_AXIS":"6925.352","FILE":"3728952","APOAPSIS":"548.235","MEAN_MOTION":"15.06398819","ARG_OF_PERICENTER":"85.3158","REF_FRAME":"TEME","RCS_SIZE":"LARGE","EPOCH":"2023-01-01T20:38:42.375552","MEAN_MOTION_DDOT":"0.0000000000000","TLE_LINE1":"1 48365U 21038N   23001.86021268  .00002021  00000-0  15454-3 0  9996","DECAY_DATE":null,"SITE":"AFETR","BSTAR":"0.00015454000000","OBJECT_TYPE":"PAYLOAD","GP_ID":"221988347","MEAN_ANOMALY":"274.7999","COUNTRY_CODE":"US","REV_AT_EPOCH":"9183","OBJECT_ID":"2021-038N","ECCENTRICITY":"0.00014700","TLE_LINE2":"2 48365  53.0532 176.7574 0001470  85.3158 274.7999 15.06398819 91833","LAUNCH_DATE":"2021-05-04","RA_OF_ASC_NODE":"176.7574","OBJECT_NAME":"STARLINK-2608","INCLINATION":"53.0532","TIME_SYSTEM":"UTC"},{"FILE":"3728952","APOAPSIS":"548.212","MEAN_MOTION":"15.06394395","ARG_OF_PERICENTER":"93.3051","REF_FRAME":"TEME","RCS_SIZE":"MEDIUM","NORAD_CAT_ID":"48366","CENTER_NAME":"EARTH","CLASSIFICATION_TYPE":"U","ELEMENT_SET_NO":"999","MEAN_MOTION_DOT":"0.00000874","MEAN_ELEMENT_THEORY":"SGP4","PERIOD":"95.592","EPHEMERIS_TYPE":"0","PERIAPSIS":"546.249","SEMIMAJOR_AXIS":"6925.366","TLE_LINE2":"2 48366  53.0524 171.5291 0001417  93.3051 266.8100 15.06394395 91905","LAUNCH_DATE":"2021-05-04","RA_OF_ASC_NODE":"171.5291","OBJECT_NAME":"STARLINK-2631","INCLINATION":"53.0524","TIME_SYSTEM":"UTC","EPOCH":"2023-01-01T21:56:20.393952","MEAN_MOTION_DDOT":"0.0000000000000","TLE_LINE1":"1 48366U 21038P   23001.91412493  .00000874  00000-0  77563-4 0  9991","DECAY_DATE":null,"BSTAR":"0.00007756300000","SITE":"AFETR","GP_ID":"221988599","OBJECT_TYPE":"PAYLOAD","MEAN_ANOMALY":"266.8100","COUNTRY_CODE":"US","REV_AT_EPOCH":"9190","OBJECT_ID":"2021-038P","ECCENTRICITY":"0.00014170"},{"CLASSIFICATION_TYPE":"U","NORAD_CAT_ID":"48367","CENTER_NAME":"EARTH","MEAN_MOTION_DOT":"0.00003709","MEAN_ELEMENT_THEORY":"SGP4","ELEMENT_SET_NO":"999","PERIAPSIS":"546.223","EPHEMERIS_TYPE":"0","PERIOD":"95.592","SEMIMAJOR_AXIS":"6925.336","MEAN_MOTION":"15.06404238","ARG_OF_PERICENTER":"81.1775","FILE":"3728952","APOAPSIS":"548.178","REF_FRAME":"TEME","RCS_SIZE":"LARGE","EPOCH":"2023-01-01T21:51:01.390464","MEAN_MOTION_DDOT":"0.0000000000000","BSTAR":"0.00026773000000","TLE_LINE1":"1 48367U 21038Q   23001.91043276  .00003709  00000-0  26773-3 0  9997","DECAY_DATE":null,"SITE":"AFETR","COUNTRY_CODE":"US","GP_ID":"221988849","OBJECT_TYPE":"PAYLOAD","MEAN_ANOMALY":"278.9374","OBJECT_ID":"2021-038Q","ECCENTRICITY":"0.00014120","REV_AT_EPOCH":"9190","TLE_LINE2":"2 48367  53.0527 171.5441 0001412  81.1775 278.9374 15.06404238 91904","LAUNCH_DATE":"2021-05-04","INCLINATION":"53.0527","RA_OF_ASC_NODE":"171.5441","OBJECT_NAME":"STARLINK-2643","TIME_SYSTEM":"UTC"},{"PERIAPSIS":"546.353","EPHEMERIS_TYPE":"0","PERIOD":"95.593","SEMIMAJOR_AXIS":"6925.377","CLASSIFICATION_TYPE":"U","NORAD_CAT_ID":"48368","CENTER_NAME":"EARTH","MEAN_MOTION_DOT":"-0.00001193","MEAN_ELEMENT_THEORY":"SGP4","ELEMENT_SET_NO":"999","REF_FRAME":"TEME","RCS_SIZE":"LARGE","MEAN_MOTION":"15.06390684","ARG_OF_PERICENTER":"88.2273","FILE":"3728952","APOAPSIS":"548.131","COUNTRY_CODE":"US","OBJECT_TYPE":"PAYLOAD","GP_ID":"221988097","MEAN_ANOMALY":"271.8863","OBJECT_ID":"2021-038R","ECCENTRICITY":"0.00012840","REV_AT_EPOCH":"9188","EPOCH":"2023-01-01T18:08:08.766528","MEAN_MOTION_DDOT":"0.0000000000000","TLE_LINE1":"1 48368U 21038R   23001.75565702 -.00001193  00000-0 -61206-4 0  9991","SITE":"AFETR","DECAY_DATE":null,"BSTAR":"-0.00006120600000","INCLINATION":"53.0534","RA_OF_ASC_NODE":"172.5179","OBJECT_NAME":"STARLINK-2623","TIME_SYSTEM":"UTC","TLE_LINE2":"2 48368  53.0534 172.5179 0001284  88.2273 271.8863 15.06390684 91881","LAUNCH_DATE":"2021-05-04"},{"REV_AT_EPOCH":"9190","ECCENTRICITY":"0.00016220","OBJECT_ID":"2021-038S","MEAN_ANOMALY":"292.6556","OBJECT_TYPE":"PAYLOAD","GP_ID":"221987848","COUNTRY_CODE":"US","TLE_LINE1":"1 48369U 21038S   23001.90675255  .00004702  00000-0  33448-3 0  9997","BSTAR":"0.00033448000000","DECAY_DATE":null,"SITE":"AFETR","MEAN_MOTION_DDOT":"0.0000000000000","EPOCH":"2023-01-01T21:45:43.420320","TIME_SYSTEM":"UTC","OBJECT_NAME":"STARLINK-2641","RA_OF_ASC_NODE":"171.5603","INCLINATION":"53.0532","LAUNCH_DATE":"2021-05-04","TLE_LINE2":"2 48369  53.0532 171.5603 0001622  67.4604 292.6556 15.06386654 91909","SEMIMAJOR_AXIS":"6925.389","PERIOD":"95.593","PERIAPSIS":"546.131","EPHEMERIS_TYPE":"0","ELEMENT_SET_NO":"999","MEAN_ELEMENT_THEORY":"SGP4","MEAN_MOTION_DOT":"0.00004702","NORAD_CAT_ID":"48369","CENTER_NAME":"EARTH","CLASSIFICATION_TYPE":"U","RCS_SIZE":"LARGE","REF_FRAME":"TEME","APOAPSIS":"548.378","FILE":"3728952","ARG_OF_PERICENTER":"67.4604","MEAN_MOTION":"15.06386654"}];
